[{"OBJECT_ID":"2015-075D","OBJECT_NAME":"BREEZE-M DEB","NORAD_CAT_ID":"41543","OBJECT_TYPE":"DEBRIS","PERIOD":"1367.421","INCLINATION":"4.4838","ECCENTRICITY":"0.02523160","MEAN_MOTION":"1.05307757","TLE_LINE1":"1 41543U 15075D   21269.77518525 -.00000076  00000-0  00000+0 0  9998","TLE_LINE2":"2 41543   4.4838  77.7126 0252316 122.4627 240.2475  1.05307757 21911"},{"OBJECT_ID":"2015-075E","OBJECT_NAME":"BREEZE-M DEB","NORAD_CAT_ID":"41544","OBJECT_TYPE":"DEBRIS","PERIOD":"1362.593","INCLINATION":"4.4531","ECCENTRICITY":"0.02966750","MEAN_MOTION":"1.05680882","TLE_LINE1":"1 41544U 15075E   21271.91941214 -.00000184  00000-0  00000+0 0  9993","TLE_LINE2":"2 41544   4.4531  79.3283 0296675 121.9617 241.1991  1.05680882 22022"},{"OBJECT_ID":"2015-075G","OBJECT_NAME":"BREEZE-M DEB","NORAD_CAT_ID":"41546","OBJECT_TYPE":"DEBRIS","PERIOD":"1376.167","INCLINATION":"4.4890","ECCENTRICITY":"0.02393060","MEAN_MOTION":"1.04638448","TLE_LINE1":"1 41546U 15075G   21270.67889226 -.00000089  00000-0  00000-0 0  9996","TLE_LINE2":"2 41546   4.4890  81.3148 0239306 108.0496 254.8176  1.04638448 21793"},{"OBJECT_ID":"2015-075H","OBJECT_NAME":"BREEZE-M DEB","NORAD_CAT_ID":"41547","OBJECT_TYPE":"DEBRIS","PERIOD":"1395.448","INCLINATION":"4.5402","ECCENTRICITY":"0.02582250","MEAN_MOTION":"1.03192686","TLE_LINE1":"1 41547U 15075H   21264.03281935 -.00000314  00000-0  00000-0 0  9994","TLE_LINE2":"2 41547   4.5402  82.1131 0258225  82.7066 280.5723  1.03192686 21429"},{"OBJECT_ID":"2015-075J","OBJECT_NAME":"BREEZE-M DEB","NORAD_CAT_ID":"41548","OBJECT_TYPE":"DEBRIS","PERIOD":"1409.072","INCLINATION":"4.7848","ECCENTRICITY":"0.03698350","MEAN_MOTION":"1.02194895","TLE_LINE1":"1 41548U 15075J   21270.55231501 -.00000159  00000-0  00000-0 0  9990","TLE_LINE2":"2 41548   4.7848  70.4351 0369835  85.4396 278.9756  1.02194895 21651"},{"OBJECT_ID":"2008-067J","OBJECT_NAME":"SL-12 DEB","NORAD_CAT_ID":"41560","OBJECT_TYPE":"DEBRIS","PERIOD":"340.816","INCLINATION":"65.1353","ECCENTRICITY":"0.57059610","MEAN_MOTION":"4.22515880","TLE_LINE1":"1 41560U 08067J   21269.58756698  .00001108  00000-0  43424-2 0  9990","TLE_LINE2":"2 41560  65.1353  56.0276 5705961 330.4279   6.8399  4.22515880 84752"},{"OBJECT_ID":"2008-067K","OBJECT_NAME":"SL-12 DEB","NORAD_CAT_ID":"41561","OBJECT_TYPE":"DEBRIS","PERIOD":"323.489","INCLINATION":"64.8913","ECCENTRICITY":"0.55545700","MEAN_MOTION":"4.45147129","TLE_LINE1":"1 41561U 08067K   21271.41561074  .00001843  00000-0  63726-2 0  9991","TLE_LINE2":"2 41561  64.8913  78.7882 5554570   6.0137 358.5629  4.45147129 89819"},{"OBJECT_ID":"2008-067L","OBJECT_NAME":"SL-12 DEB","NORAD_CAT_ID":"41562","OBJECT_TYPE":"DEBRIS","PERIOD":"342.339","INCLINATION":"65.0837","ECCENTRICITY":"0.56855310","MEAN_MOTION":"4.20636064","TLE_LINE1":"1 41562U 08067L   21272.43225031  .00000046  00000-0  24923-3 0  9996","TLE_LINE2":"2 41562  65.0837  68.9569 5685531 332.2413   6.4469  4.20636064 84500"},{"OBJECT_ID":"2016-035C","OBJECT_NAME":"BREEZE-M DEB (TANK)","NORAD_CAT_ID":"41583","OBJECT_TYPE":"DEBRIS","PERIOD":"261.674","INCLINATION":"50.7833","ECCENTRICITY":"0.50095960","MEAN_MOTION":"5.50302891","TLE_LINE1":"1 41583U 16035C   21271.00201580  .00000704  00000-0  35570-3 0  9999","TLE_LINE2":"2 41583  50.7833 254.0687 5009596 324.3342  10.7011  5.50302891106512"},{"OBJECT_ID":"2016-039D","OBJECT_NAME":"ARIANE 5 DEB (SYLDA)","NORAD_CAT_ID":"41594","OBJECT_TYPE":"DEBRIS","PERIOD":"476.913","INCLINATION":"5.6565","ECCENTRICITY":"0.67116810","MEAN_MOTION":"3.01941570","TLE_LINE1":"1 41594U 16039D   21271.16236185  .00008393  00000-0  22402-2 0  9992","TLE_LINE2":"2 41594   5.6565 203.0166 6711681 236.5762  41.3630  3.01941570 50294"},{"OBJECT_ID":"2008-067M","OBJECT_NAME":"SL-12 DEB","NORAD_CAT_ID":"41641","OBJECT_TYPE":"DEBRIS","PERIOD":"341.773","INCLINATION":"64.6693","ECCENTRICITY":"0.58102610","MEAN_MOTION":"4.21332323","TLE_LINE1":"1 41641U 08067M   21268.58306627  .00000189  00000-0  28046-3 0  9994","TLE_LINE2":"2 41641  64.6693  50.3731 5810261 355.6209   0.8890  4.21332323 81258"},{"OBJECT_ID":"2008-067N","OBJECT_NAME":"SL-12 DEB","NORAD_CAT_ID":"41642","OBJECT_TYPE":"DEBRIS","PERIOD":"331.454","INCLINATION":"65.1813","ECCENTRICITY":"0.56956820","MEAN_MOTION":"4.34449887","TLE_LINE1":"1 41642U 08067N   21270.31047698  .00000892  00000-0  14460-2 0  9994","TLE_LINE2":"2 41642  65.1813  25.1043 5695682 333.9831   6.0300  4.34449887 83392"},{"OBJECT_ID":"2008-067Q","OBJECT_NAME":"SL-12 DEB","NORAD_CAT_ID":"41644","OBJECT_TYPE":"DEBRIS","PERIOD":"330.998","INCLINATION":"62.6931","ECCENTRICITY":"0.55864690","MEAN_MOTION":"4.35047694","TLE_LINE1":"1 41644U 08067Q   21271.65697461 -.00009139  00000-0 -48700-1 0  9991","TLE_LINE2":"2 41644  62.6931  38.9539 5586469  74.9816 338.0093  4.35047694 83620"},{"OBJECT_ID":"2008-067R","OBJECT_NAME":"SL-12 DEB","NORAD_CAT_ID":"41645","OBJECT_TYPE":"DEBRIS","PERIOD":"323.138","INCLINATION":"65.2170","ECCENTRICITY":"0.55868790","MEAN_MOTION":"4.45630290","TLE_LINE1":"1 41645U 08067R   21247.82366543  .00306062  00000-0  69550+0 0  9995","TLE_LINE2":"2 41645  65.2170  87.9394 5586879   7.2666 358.3756  4.45630290 80095"},{"OBJECT_ID":"1994-076J","OBJECT_NAME":"SL-12 DEB","NORAD_CAT_ID":"41675","OBJECT_TYPE":"DEBRIS","PERIOD":"336.379","INCLINATION":"64.6966","ECCENTRICITY":"0.55396980","MEAN_MOTION":"4.28088586","TLE_LINE1":"1 41675U 94076J   21272.10067649 -.00007345  00000-0 -96165-1 0  9995","TLE_LINE2":"2 41675  64.6966 225.3558 5539698 229.4273  67.4086  4.28088586113483"},{"OBJECT_ID":"2007-052J","OBJECT_NAME":"SL-12 DEB","NORAD_CAT_ID":"41677","OBJECT_TYPE":"DEBRIS","PERIOD":"328.939","INCLINATION":"64.9234","ECCENTRICITY":"0.56305790","MEAN_MOTION":"4.37771716","TLE_LINE1":"1 41677U 07052J   21270.82155183  .00000187  00000-0  35381-3 0  9993","TLE_LINE2":"2 41677  64.9234 120.6087 5630579 316.0607  10.9697  4.37771716112185"},{"OBJECT_ID":"2007-052N","OBJECT_NAME":"SL-12 DEB","NORAD_CAT_ID":"41681","OBJECT_TYPE":"DEBRIS","PERIOD":"328.565","INCLINATION":"65.2668","ECCENTRICITY":"0.55883210","MEAN_MOTION":"4.38268895","TLE_LINE1":"1 41681U 07052N   21271.80012657  .00000067  00000-0  76453-4 0  9998","TLE_LINE2":"2 41681  65.2668 107.3273 5588321 295.3100  17.9062  4.38268895113418"},{"OBJECT_ID":"2007-052Z","OBJECT_NAME":"SL-12 DEB","NORAD_CAT_ID":"41692","OBJECT_TYPE":"DEBRIS","PERIOD":"331.276","INCLINATION":"65.1217","ECCENTRICITY":"0.57950630","MEAN_MOTION":"4.34682644","TLE_LINE1":"1 41692U 07052Z   21270.90966036  .00014348  00000-0  29522-2 0  9999","TLE_LINE2":"2 41692  65.1217 154.7382 5795063 345.0869   3.3399  4.34682644 11994"},{"OBJECT_ID":"2010-007M","OBJECT_NAME":"SL-12 DEB","NORAD_CAT_ID":"41695","OBJECT_TYPE":"DEBRIS","PERIOD":"306.323","INCLINATION":"64.8247","ECCENTRICITY":"0.53523620","MEAN_MOTION":"4.70091678","TLE_LINE1":"1 41695U 10007M   21255.48199291 -.00015882  00000-0 -74758-1 0  9999","TLE_LINE2":"2 41695  64.8247  76.6282 5352362   3.1005 359.2235  4.70091678115620"},{"OBJECT_ID":"2010-007N","OBJECT_NAME":"SL-12 DEB","NORAD_CAT_ID":"41696","OBJECT_TYPE":"DEBRIS","PERIOD":"354.092","INCLINATION":"64.2769","ECCENTRICITY":"0.57387860","MEAN_MOTION":"4.06673813","TLE_LINE1":"1 41696U 10007N   21270.99418521  .00000252  00000-0  25670-2 0  9996","TLE_LINE2":"2 41696  64.2769 159.4365 5738786  47.8752 348.4829  4.06673813106229"},{"OBJECT_ID":"2010-007P","OBJECT_NAME":"SL-12 DEB","NORAD_CAT_ID":"41697","OBJECT_TYPE":"DEBRIS","PERIOD":"348.551","INCLINATION":"65.5458","ECCENTRICITY":"0.56413150","MEAN_MOTION":"4.13139464","TLE_LINE1":"1 41697U 10007P   21270.18640709  .00007230  00000-0  10267+0 0  9999","TLE_LINE2":"2 41697  65.5458 192.2712 5641315  10.2299 357.6415  4.13139464107862"},{"OBJECT_ID":"2010-007Q","OBJECT_NAME":"SL-12 DEB","NORAD_CAT_ID":"41698","OBJECT_TYPE":"DEBRIS","PERIOD":"331.005","INCLINATION":"64.7231","ECCENTRICITY":"0.56692670","MEAN_MOTION":"4.35038599","TLE_LINE1":"1 41698U 10007Q   21267.45080208 -.00000086  00000-0 -16279-4 0  9996","TLE_LINE2":"2 41698  64.7231  58.4884 5669267   8.5686 357.9876  4.35038599113033"},{"OBJECT_ID":"2010-007R","OBJECT_NAME":"SL-12 DEB","NORAD_CAT_ID":"41699","OBJECT_TYPE":"DEBRIS","PERIOD":"333.650","INCLINATION":"64.6847","ECCENTRICITY":"0.56921700","MEAN_MOTION":"4.31589476","TLE_LINE1":"1 41699U 10007R   21272.44187236  .00000233  00000-0  41426-3 0  9994","TLE_LINE2":"2 41699  64.6847  70.9772 5692170  11.8536 357.2921  4.31589476112923"},{"OBJECT_ID":"2010-007S","OBJECT_NAME":"SL-12 DEB","NORAD_CAT_ID":"41700","OBJECT_TYPE":"DEBRIS","PERIOD":"350.612","INCLINATION":"64.5431","ECCENTRICITY":"0.57877580","MEAN_MOTION":"4.10709991","TLE_LINE1":"1 41700U 10007S   21269.91240928 -.00000060  00000-0  62494-4 0  9991","TLE_LINE2":"2 41700  64.5431 164.2569 5787758  16.8109 356.3758  4.10709991107399"},{"OBJECT_ID":"2010-007T","OBJECT_NAME":"SL-12 DEB","NORAD_CAT_ID":"41701","OBJECT_TYPE":"DEBRIS","PERIOD":"347.952","INCLINATION":"65.1756","ECCENTRICITY":"0.56522430","MEAN_MOTION":"4.13850406","TLE_LINE1":"1 41701U 10007T   21259.32871179  .00009421  00000-0  11699+0 0  9999","TLE_LINE2":"2 41701  65.1756 188.4313 5652243 359.9102 359.9783  4.13850406107361"},{"OBJECT_ID":"2010-007W","OBJECT_NAME":"SL-12 DEB","NORAD_CAT_ID":"41704","OBJECT_TYPE":"DEBRIS","PERIOD":"331.051","INCLINATION":"64.8304","ECCENTRICITY":"0.55218800","MEAN_MOTION":"4.34978040","TLE_LINE1":"1 41704U 10007W   21271.77405040  .00000166  00000-0  13277-2 0  9999","TLE_LINE2":"2 41704  64.8304  98.0770 5521880 353.9943   1.4778  4.34978040105023"},{"OBJECT_ID":"2016-053D","OBJECT_NAME":"ARIANE 5 DEB (SYLDA)","NORAD_CAT_ID":"41750","OBJECT_TYPE":"DEBRIS","PERIOD":"507.758","INCLINATION":"6.4800","ECCENTRICITY":"0.68405610","MEAN_MOTION":"2.83599531","TLE_LINE1":"1 41750U 16053D   21271.14225145  .00006293  00000-0  23455-2 0  9990","TLE_LINE2":"2 41750   6.4800 326.7607 6840561 137.0779 303.3837  2.83599531 47836"}]